[{"OBJECT_NAME":"GARAI-A","OBJECT_ID":"2025-009AC","EPOCH":"2026-03-09T21:36:19.316448","MEAN_MOTION":15.20920537,"ECCENTRICITY":0.00014341,"INCLINATION":97.4043,"RA_OF_ASC_NODE":150.5243,"ARG_OF_PERICENTER":352.7468,"MEAN_ANOMALY":7.3747,"EPHEMERIS_TYPE":0,"CLASSIFICATION_TYPE":"U","NORAD_CAT_ID":62635,"ELEMENT_SET_NO":999,"REV_AT_EPOCH":6369,"BSTAR":0.00042225314,"MEAN_MOTION_DOT":9.278e-5,"MEAN_MOTION_DDOT":0},{"OBJECT_NAME":"CZ-2C R\/B","OBJECT_ID":"2026-021B","EPOCH":"2026-03-09T21:51:23.415552","MEAN_MOTION":15.24093237,"ECCENTRICITY":0.01506252,"INCLINATION":97.65,"RA_OF_ASC_NODE":144.3935,"ARG_OF_PERICENTER":10.4871,"MEAN_ANOMALY":349.9447,"EPHEMERIS_TYPE":0,"CLASSIFICATION_TYPE":"U","NORAD_CAT_ID":67647,"ELEMENT_SET_NO":999,"REV_AT_EPOCH":573,"BSTAR":0.00038397881,"MEAN_MOTION_DOT":0.00012809,"MEAN_MOTION_DDOT":0}]
